STARLINK-34529          
1 64936U 25158E   25245.24695548 -.00324493  00000+0 -91530-2 0  9996
2 64936  97.6042 108.0727 0002079 140.8190 219.3205 15.37689519  6983
STARLINK-34743          
1 64937U 25158F   25245.03569657 -.00082201  00000+0 -22427-2 0  9992
2 64937  97.6039 107.8917 0006475 177.1646 182.9636 15.37703372  6955
STARLINK-34730          
1 64938U 25158G   25245.25003472 -.01636644  00000+0 -55293-1 0  9998
2 64938  97.6042 108.1511 0001957  89.4832  95.7289 15.33699423  6026
STARLINK-34714          
1 64939U 25158H   25245.26277820 -.00088055  00000+0 -23825-2 0  9993
2 64939  97.6024 108.2067 0005750  84.1693 276.0206 15.37991149  6832
STARLINK-34755          
1 64940U 25158J   25245.25003472 -.00084619  00000+0 -11346-2 0  9991
2 64940  97.6021 108.6618 0001655  98.0273 183.1535 15.58170589  6029
STARLINK-34740          
1 64941U 25158K   25245.04756597  .00067103  00000+0  17058-2 0  9995
2 64941  97.6053 107.8752 0001217  64.0026 296.1345 15.39377354  6895
STARLINK-34742          
1 64942U 25158L   25244.58422610  .00033927  00000+0  86775-3 0  9990
2 64942  97.6045 107.4163 0002039  74.0438 286.1032 15.39360278  6888
STARLINK-34719          
1 64943U 25158M   25244.90130560  .00071335  00000+0  18135-2 0  9996
2 64943  97.6044 107.7629 0001935  94.1339 266.0127 15.39355884  6930
STARLINK-34373          
1 64944U 25158N   25245.25003472 -.01656211  00000+0 -57609-1 0  9990
2 64944  97.6045 108.1374 0002005  82.6951  73.0017 15.32814362  6023
STARLINK-34758          
1 64945U 25158P   25245.25003472 -.01640680  00000+0 -54052-1 0  9993
2 64945  97.6042 108.1626 0002186  87.1224 124.3172 15.34496763  6029
STARLINK-34753          
1 64946U 25158Q   25245.26697736  .00087014  00000+0  23362-2 0  9991
2 64946  97.6019 108.2008 0005267 312.8962  47.1840 15.37591935  6999
STARLINK-34747          
1 64947U 25158R   25245.25003472 -.01627401  00000+0 -60390-1 0  9993
2 64947  97.6033 108.1933 0002294  93.0162 182.4717 15.30692640  6027
STARLINK-34630          
1 64948U 25158S   25244.57411493  .00068176  00000+0  17339-2 0  9995
2 64948  97.6023 107.4282 0001517  91.5067 268.6352 15.39357087  6888
STARLINK-34689          
1 64949U 25158T   25245.25003472 -.01642464  00000+0 -53410-1 0  9996
2 64949  97.6037 108.0886 0001913 101.4831 301.9291 15.34910752  5916
STARLINK-34586          
1 64950U 25158U   25245.25003472 -.01662302  00000+0 -57803-1 0  9991
2 64950  97.6040 108.1429 0002000  82.2290  85.5974 15.32835822  6027
STARLINK-34738          
1 64951U 25158V   25245.26925812 -.00288814  00000+0 -82690-2 0  9998
2 64951  97.6031 108.1979 0001984 107.3385 252.8076 15.37085579  6991
