[{"OBJECT_NAME":"STARLINK-34529","OBJECT_ID":"2025-158E","EPOCH":"2025-09-02T05:55:36.953472","MEAN_MOTION":15.37689519,"ECCENTRICITY":0.00020796,"INCLINATION":97.6042,"RA_OF_ASC_NODE":108.0727,"ARG_OF_PERICENTER":140.819,"MEAN_ANOMALY":219.3205,"EPHEMERIS_TYPE":0,"CLASSIFICATION_TYPE":"U","NORAD_CAT_ID":64936,"ELEMENT_SET_NO":999,"REV_AT_EPOCH":698,"BSTAR":-0.009152978,"MEAN_MOTION_DOT":-0.00324493,"MEAN_MOTION_DDOT":0},{"OBJECT_NAME":"STARLINK-34743","OBJECT_ID":"2025-158F","EPOCH":"2025-09-02T00:51:24.183648","MEAN_MOTION":15.37703372,"ECCENTRICITY":0.00064754,"INCLINATION":97.6039,"RA_OF_ASC_NODE":107.8917,"ARG_OF_PERICENTER":177.1646,"MEAN_ANOMALY":182.9636,"EPHEMERIS_TYPE":0,"CLASSIFICATION_TYPE":"U","NORAD_CAT_ID":64937,"ELEMENT_SET_NO":999,"REV_AT_EPOCH":695,"BSTAR":-0.0022426994,"MEAN_MOTION_DOT":-0.00082201,"MEAN_MOTION_DDOT":0},{"OBJECT_NAME":"STARLINK-34730","OBJECT_ID":"2025-158G","EPOCH":"2025-09-02T06:00:02.999808","MEAN_MOTION":15.33699423,"ECCENTRICITY":0.0001957,"INCLINATION":97.6042,"RA_OF_ASC_NODE":108.1511,"ARG_OF_PERICENTER":89.4832,"MEAN_ANOMALY":95.7289,"EPHEMERIS_TYPE":0,"CLASSIFICATION_TYPE":"U","NORAD_CAT_ID":64938,"ELEMENT_SET_NO":999,"REV_AT_EPOCH":602,"BSTAR":-0.055293369,"MEAN_MOTION_DOT":-0.01636644,"MEAN_MOTION_DDOT":0},{"OBJECT_NAME":"STARLINK-34714","OBJECT_ID":"2025-158H","EPOCH":"2025-09-02T06:18:24.036480","MEAN_MOTION":15.37991149,"ECCENTRICITY":0.00057509,"INCLINATION":97.6024,"RA_OF_ASC_NODE":108.2067,"ARG_OF_PERICENTER":84.1693,"MEAN_ANOMALY":276.0206,"EPHEMERIS_TYPE":0,"CLASSIFICATION_TYPE":"U","NORAD_CAT_ID":64939,"ELEMENT_SET_NO":999,"REV_AT_EPOCH":683,"BSTAR":-0.0023824894,"MEAN_MOTION_DOT":-0.00088055,"MEAN_MOTION_DDOT":0},{"OBJECT_NAME":"STARLINK-34755","OBJECT_ID":"2025-158J","EPOCH":"2025-09-02T06:00:02.999808","MEAN_MOTION":15.58170589,"ECCENTRICITY":0.00016559,"INCLINATION":97.6021,"RA_OF_ASC_NODE":108.6618,"ARG_OF_PERICENTER":98.0273,"MEAN_ANOMALY":183.1535,"EPHEMERIS_TYPE":0,"CLASSIFICATION_TYPE":"U","NORAD_CAT_ID":64940,"ELEMENT_SET_NO":999,"REV_AT_EPOCH":602,"BSTAR":-0.0011345614,"MEAN_MOTION_DOT":-0.00084619,"MEAN_MOTION_DDOT":0},{"OBJECT_NAME":"STARLINK-34740","OBJECT_ID":"2025-158K","EPOCH":"2025-09-02T01:08:29.699808","MEAN_MOTION":15.39377354,"ECCENTRICITY":0.00012172,"INCLINATION":97.6053,"RA_OF_ASC_NODE":107.8752,"ARG_OF_PERICENTER":64.0026,"MEAN_ANOMALY":296.1345,"EPHEMERIS_TYPE":0,"CLASSIFICATION_TYPE":"U","NORAD_CAT_ID":64941,"ELEMENT_SET_NO":999,"REV_AT_EPOCH":689,"BSTAR":0.0017058207,"MEAN_MOTION_DOT":0.00067103,"MEAN_MOTION_DDOT":0},{"OBJECT_NAME":"STARLINK-34742","OBJECT_ID":"2025-158L","EPOCH":"2025-09-01T14:01:17.135040","MEAN_MOTION":15.39360278,"ECCENTRICITY":0.00020398,"INCLINATION":97.6045,"RA_OF_ASC_NODE":107.4163,"ARG_OF_PERICENTER":74.0438,"MEAN_ANOMALY":286.1032,"EPHEMERIS_TYPE":0,"CLASSIFICATION_TYPE":"U","NORAD_CAT_ID":64942,"ELEMENT_SET_NO":999,"REV_AT_EPOCH":688,"BSTAR":0.00086774841,"MEAN_MOTION_DOT":0.00033927,"MEAN_MOTION_DDOT":0},{"OBJECT_NAME":"STARLINK-34719","OBJECT_ID":"2025-158M","EPOCH":"2025-09-01T21:37:52.803840","MEAN_MOTION":15.39355884,"ECCENTRICITY":0.00019356,"INCLINATION":97.6044,"RA_OF_ASC_NODE":107.7629,"ARG_OF_PERICENTER":94.1339,"MEAN_ANOMALY":266.0127,"EPHEMERIS_TYPE":0,"CLASSIFICATION_TYPE":"U","NORAD_CAT_ID":64943,"ELEMENT_SET_NO":999,"REV_AT_EPOCH":693,"BSTAR":0.001813478,"MEAN_MOTION_DOT":0.00071335,"MEAN_MOTION_DDOT":0},{"OBJECT_NAME":"STARLINK-34373","OBJECT_ID":"2025-158N","EPOCH":"2025-09-02T06:00:02.999808","MEAN_MOTION":15.32814362,"ECCENTRICITY":0.00020053,"INCLINATION":97.6045,"RA_OF_ASC_NODE":108.1374,"ARG_OF_PERICENTER":82.6951,"MEAN_ANOMALY":73.0017,"EPHEMERIS_TYPE":0,"CLASSIFICATION_TYPE":"U","NORAD_CAT_ID":64944,"ELEMENT_SET_NO":999,"REV_AT_EPOCH":602,"BSTAR":-0.057609161,"MEAN_MOTION_DOT":-0.01656211,"MEAN_MOTION_DDOT":0},{"OBJECT_NAME":"STARLINK-34758","OBJECT_ID":"2025-158P","EPOCH":"2025-09-02T06:00:02.999808","MEAN_MOTION":15.34496763,"ECCENTRICITY":0.00021867,"INCLINATION":97.6042,"RA_OF_ASC_NODE":108.1626,"ARG_OF_PERICENTER":87.1224,"MEAN_ANOMALY":124.3172,"EPHEMERIS_TYPE":0,"CLASSIFICATION_TYPE":"U","NORAD_CAT_ID":64945,"ELEMENT_SET_NO":999,"REV_AT_EPOCH":602,"BSTAR":-0.054051814,"MEAN_MOTION_DOT":-0.0164068,"MEAN_MOTION_DDOT":0},{"OBJECT_NAME":"STARLINK-34753","OBJECT_ID":"2025-158Q","EPOCH":"2025-09-02T06:24:26.843904","MEAN_MOTION":15.37591935,"ECCENTRICITY":0.00052675,"INCLINATION":97.6019,"RA_OF_ASC_NODE":108.2008,"ARG_OF_PERICENTER":312.8962,"MEAN_ANOMALY":47.184,"EPHEMERIS_TYPE":0,"CLASSIFICATION_TYPE":"U","NORAD_CAT_ID":64946,"ELEMENT_SET_NO":999,"REV_AT_EPOCH":699,"BSTAR":0.0023362459,"MEAN_MOTION_DOT":0.00087014,"MEAN_MOTION_DDOT":0},{"OBJECT_NAME":"STARLINK-34747","OBJECT_ID":"2025-158R","EPOCH":"2025-09-02T06:00:02.999808","MEAN_MOTION":15.3069264,"ECCENTRICITY":0.00022948,"INCLINATION":97.6033,"RA_OF_ASC_NODE":108.1933,"ARG_OF_PERICENTER":93.0162,"MEAN_ANOMALY":182.4717,"EPHEMERIS_TYPE":0,"CLASSIFICATION_TYPE":"U","NORAD_CAT_ID":64947,"ELEMENT_SET_NO":999,"REV_AT_EPOCH":602,"BSTAR":-0.060389766,"MEAN_MOTION_DOT":-0.01627401,"MEAN_MOTION_DDOT":0},{"OBJECT_NAME":"STARLINK-34630","OBJECT_ID":"2025-158S","EPOCH":"2025-09-01T13:46:43.529952","MEAN_MOTION":15.39357087,"ECCENTRICITY":0.00015174,"INCLINATION":97.6023,"RA_OF_ASC_NODE":107.4282,"ARG_OF_PERICENTER":91.5067,"MEAN_ANOMALY":268.6352,"EPHEMERIS_TYPE":0,"CLASSIFICATION_TYPE":"U","NORAD_CAT_ID":64948,"ELEMENT_SET_NO":999,"REV_AT_EPOCH":688,"BSTAR":0.0017339479,"MEAN_MOTION_DOT":0.00068176,"MEAN_MOTION_DDOT":0},{"OBJECT_NAME":"STARLINK-34689","OBJECT_ID":"2025-158T","EPOCH":"2025-09-02T06:00:02.999808","MEAN_MOTION":15.34910752,"ECCENTRICITY":0.00019133,"INCLINATION":97.6037,"RA_OF_ASC_NODE":108.0886,"ARG_OF_PERICENTER":101.4831,"MEAN_ANOMALY":301.9291,"EPHEMERIS_TYPE":0,"CLASSIFICATION_TYPE":"U","NORAD_CAT_ID":64949,"ELEMENT_SET_NO":999,"REV_AT_EPOCH":591,"BSTAR":-0.053409625,"MEAN_MOTION_DOT":-0.01642464,"MEAN_MOTION_DDOT":0},{"OBJECT_NAME":"STARLINK-34586","OBJECT_ID":"2025-158U","EPOCH":"2025-09-02T06:00:02.999808","MEAN_MOTION":15.32835822,"ECCENTRICITY":0.00020001,"INCLINATION":97.604,"RA_OF_ASC_NODE":108.1429,"ARG_OF_PERICENTER":82.229,"MEAN_ANOMALY":85.5974,"EPHEMERIS_TYPE":0,"CLASSIFICATION_TYPE":"U","NORAD_CAT_ID":64950,"ELEMENT_SET_NO":999,"REV_AT_EPOCH":602,"BSTAR":-0.057802919,"MEAN_MOTION_DOT":-0.01662302,"MEAN_MOTION_DDOT":0},{"OBJECT_NAME":"STARLINK-34738","OBJECT_ID":"2025-158V","EPOCH":"2025-09-02T06:27:43.901568","MEAN_MOTION":15.37085579,"ECCENTRICITY":0.00019847,"INCLINATION":97.6031,"RA_OF_ASC_NODE":108.1979,"ARG_OF_PERICENTER":107.3385,"MEAN_ANOMALY":252.8076,"EPHEMERIS_TYPE":0,"CLASSIFICATION_TYPE":"U","NORAD_CAT_ID":64951,"ELEMENT_SET_NO":999,"REV_AT_EPOCH":699,"BSTAR":-0.0082689602,"MEAN_MOTION_DOT":-0.00288814,"MEAN_MOTION_DDOT":0}]
